HST                     
1 20580U 90037B   26068.15977042  .00009063  00000+0  30023-3 0  9999
2 20580  28.4717  43.6133 0001837 120.9992 239.0785 15.29473555773239
STARLINK-3669           
1 51971U 22025R   26068.28248082  .00000934  00000+0  44702-4 0  9996
2 51971  53.1571  26.2555 0001196  96.9163 263.1974 15.29361516220952
